STARLINK-2168
1 17751C 21017AF  21326.12308433  .00006271  00000-0  42025-3 0  3269
2 17751  53.0521  33.1857 0001519  74.5048 353.2054 15.06386573    10
